BEIDOU-2 IGSO-1 (C06)   
1 36828U 10036A   26132.68902604 -.00000041  00000+0  00000+0 0  9990
2 36828  54.2951 163.2807 0058855 224.5644 197.8413  1.00282752 57743
BEIDOU-2 G4 (C04)       
1 37210U 10057A   26134.60997250 -.00000098  00000+0  00000+0 0  9996
2 37210   3.5632  69.1328 0005602 209.7212 333.0735  1.00272373 56953
BEIDOU-2 IGSO-2 (C07)   
1 37256U 10068A   26134.81364228 -.00000229  00000+0  00000+0 0  9990
2 37256  47.6127 272.2469 0054293 211.9004 147.4993  1.00294530 56455
BEIDOU-2 IGSO-3 (C08)   
1 37384U 11013A   26134.75077336 -.00000206  00000+0  00000+0 0  9992
2 37384  62.3634  40.4703 0033942 185.9417  24.6219  1.00276202 55324
BEIDOU-2 IGSO-4 (C09)   
1 37763U 11038A   26134.55136171  .00000083  00000+0  00000+0 0  9993
2 37763  54.5875 165.9688 0158111 233.6626 122.7564  1.00290878 54304
BEIDOU-2 IGSO-5 (C10)   
1 37948U 11073A   26134.85233405 -.00000174  00000+0  00000+0 0  9990
2 37948  47.7421 271.9571 0111838 220.5962 139.4077  1.00256060 52804
BEIDOU-2 G5 (C05)       
1 38091U 12008A   26134.90091671  .00000071  00000+0  00000+0 0  9997
2 38091   3.4903  69.8861 0011005 271.0617 274.6918  1.00271892 52038
BEIDOU-2 M3 (C11)       
1 38250U 12018A   26133.82337998 -.00000044  00000+0  00000+0 0  9991
2 38250  55.7884 306.0335 0019740 276.7159  83.0491  1.86230034 95304
BEIDOU-2 M4 (C12)       
1 38251U 12018B   26134.29258150 -.00000046  00000+0  00000+0 0  9998
2 38251  55.6884 305.2340 0010931 281.8081  78.0562  1.86229693 95318
BEIDOU-2 M6 (C14)       
1 38775U 12050B   26133.46547221 -.00000034  00000+0  00000+0 0  9990
2 38775  56.5154  64.0423 0014338 351.5107   8.4474  1.86230860 92662
BEIDOU-2 G6 (C02)       
1 38953U 12059A   26134.83461641 -.00000162  00000+0  00000+0 0  9992
2 38953   4.3366  73.8698 0010420 320.6012 222.6397  1.00271635 49575
BEIDOU-3S IGSO-1S (C31) 
1 40549U 15019A   26134.40902468 -.00000180  00000+0  00000+0 0  9995
2 40549  49.2611 295.8678 0037753 190.1822 347.3754  1.00257561 40734
BEIDOU-3S M2S (C58)     
1 40748U 15037A   26133.42160253 -.00000044  00000+0  00000+0 0  9994
2 40748  54.9026 303.2431 0007483 267.3673  92.5347  1.86232251 73474
BEIDOU-3S M1S (C57)     
1 40749U 15037B   26132.02261529 -.00000039  00000+0  00000+0 0  9992
2 40749  54.9005 303.2786 0004165  55.6265 304.4052  1.86254900 73455
BEIDOU-3S IGSO-2S (C56) 
1 40938U 15053A   26134.81413883 -.00000171  00000+0  00000+0 0  9998
2 40938  49.2758 259.1800 0064443 190.7694 172.1939  1.00267485 39022
BEIDOU-2 IGSO-6 (C13)   
1 41434U 16021A   26133.71344662 -.00000171  00000+0  00000+0 0  9992
2 41434  60.1795  38.3842 0057349 232.4091 312.1070  1.00265272 37136
BEIDOU-2 G7 (C03)       
1 41586U 16037A   26134.91120100 -.00000339  00000+0  00000+0 0  9995
2 41586   1.6371  69.0071 0007508 359.1774 243.0626  1.00268839  6559
BEIDOU-3 M1 (C19)       
1 43001U 17069A   26133.76780652 -.00000035  00000+0  00000+0 0  9994
2 43001  56.6631  64.2188 0011641 320.5367  39.3602  1.86231382 57969
BEIDOU-3 M2 (C20)       
1 43002U 17069B   26133.16952611 -.00000032  00000+0  00000+0 0  9992
2 43002  56.6620  64.2738 0009693 344.6836  15.2699  1.86229936 57940
BEIDOU-3 M7 (C27)       
1 43107U 18003A   26134.52202215 -.00000050  00000+0  00000+0 0  9996
2 43107  54.3594 303.4891 0005239  85.7155 274.3282  1.86228234 56729
BEIDOU-3 M8 (C28)       
1 43108U 18003B   26132.85647029 -.00000043  00000+0  00000+0 0  9999
2 43108  54.3540 303.5291 0002179 277.0252  82.9401  1.86231209 56700
BEIDOU-3 M4 (C22)       
1 43207U 18018A   26133.83609041 -.00000035  00000+0  00000+0 0  9997
2 43207  56.6222  64.2817 0007810   8.4475 351.5469  1.86231296 56106
BEIDOU-3 M3 (C21)       
1 43208U 18018B   26133.90253905 -.00000036  00000+0  00000+0 0  9991
2 43208  56.6215  64.2834 0009595 332.7979  27.1331  1.86231253 56109
BEIDOU-3 M9 (C29)       
1 43245U 18029A   26133.04629420 -.00000044  00000+0  00000+0 0  9997
2 43245  54.2274 301.1779 0000806 101.6627 258.3330  1.86228295 55242
BEIDOU-3 M10 (C30)      
1 43246U 18029B   26132.98083424 -.00000043  00000+0  00000+0 0  9997
2 43246  54.2250 301.2067 0004582  37.0226 322.9958  1.86229383 55221
BEIDOU-2 IGSO-7 (C16)   
1 43539U 18057A   26134.48418476  .00000023  00000+0  00000+0 0  9996
2 43539  55.1885 163.3530 0103946 237.7951 117.4564  1.00261150 28785
BEIDOU-3 M5 (C23)       
1 43581U 18062A   26134.81592912  .00000098  00000+0  00000+0 0  9996
2 43581  54.0834 183.4391 0004978 287.7441  72.2956  1.86228609 53019
BEIDOU-3 M6 (C24)       
1 43582U 18062B   26134.14227334  .00000096  00000+0  00000+0 0  9994
2 43582  54.0834 183.4512 0004761  15.4018 344.7046  1.86227846 53009
BEIDOU-3 M12 (C26)      
1 43602U 18067A   26134.61762994  .00000100  00000+0  00000+0 0  9996
2 43602  54.1785 182.1790 0007852  32.3803 327.7614  1.86227964 52491
BEIDOU-3 M11 (C25)      
1 43603U 18067B   26132.60474189  .00000085  00000+0  00000+0 0  9992
2 43603  54.1758 182.2111 0004416  17.3082 342.7922  1.86227468 52482
BEIDOU-3 M13 (C32)      
1 43622U 18072A   26133.63367348 -.00000035  00000+0  00000+0 0  9997
2 43622  56.5956  63.8000 0008352 321.7173  38.2058  1.86231484 52015
